EUTELSAT 7A             
1 28187U 04008A   25298.59025264  .00000117  00000+0  00000+0 0  9994
2 28187   5.2314  74.7963 0000768 120.1395 272.5913  1.00271129 79009
EUTELSAT 174A           
1 28924U 05052A   25298.79513367  .00000023  00000+0  00000+0 0  9997
2 28924   3.6218  79.4178 0006137 133.8607 281.4657  1.00269919 49988
EUTELSAT HOTBIRD 13B    
1 29270U 06032A   25298.83852919  .00000168  00000+0  00000+0 0  9995
2 29270   1.0515  84.7781 0003923 122.5660 162.1237  1.00274432 44955
EUTELSAT HOTBIRD 13C    
1 33459U 08065A   25298.82951581 -.00000087  00000+0  00000+0 0  9992
2 33459   2.3437  81.9496 0005925 151.4480  87.2282  1.00272260 44991
EUTELSAT 36B            
1 36101U 09065A   25298.84199588  .00000124  00000+0  00000+0 0  9994
2 36101   0.0506   5.6878 0005917 209.9696 172.4627  1.00270359 58358
EUTELSAT KA-SAT 9A      
1 37258U 10069A   25298.83376250  .00000075  00000+0  00000+0 0  9991
2 37258   0.0582 319.3277 0002469 214.1604 170.1736  1.00275351 41658
EUTELSAT 7 WEST A       
1 37816U 11051A   25298.83055582 -.00000047  00000+0  00000+0 0  9995
2 37816   0.0954  47.9185 0006278 159.4097 118.8643  1.00272577 51533
EUTELSAT 16A            
1 37836U 11057A   25298.83514918  .00000116  00000+0  00000+0 0  9992
2 37836   0.0654   4.0468 0005591 214.2319 132.8648  1.00270097  4976
